[{"OBJECT_NAME":"METOP-B","OBJECT_ID":"2012-049A","EPOCH":"2026-03-09T20:49:00.301440","MEAN_MOTION":14.2144474,"ECCENTRICITY":0.0001197,"INCLINATION":98.6642,"RA_OF_ASC_NODE":122.2903,"ARG_OF_PERICENTER":264.5889,"MEAN_ANOMALY":95.5152,"EPHEMERIS_TYPE":0,"CLASSIFICATION_TYPE":"U","NORAD_CAT_ID":38771,"ELEMENT_SET_NO":999,"REV_AT_EPOCH":69915,"BSTAR":8.3719118e-5,"MEAN_MOTION_DOT":1.4e-6,"MEAN_MOTION_DDOT":0},{"OBJECT_NAME":"METEOR 2-5 DEB","OBJECT_ID":"1979-095CT","EPOCH":"2026-03-01T00:08:26.215872","MEAN_MOTION":14.22894372,"ECCENTRICITY":0.00095117,"INCLINATION":81.2212,"RA_OF_ASC_NODE":315.9653,"ARG_OF_PERICENTER":72.3524,"MEAN_ANOMALY":287.8692,"EPHEMERIS_TYPE":0,"CLASSIFICATION_TYPE":"U","NORAD_CAT_ID":45511,"ELEMENT_SET_NO":999,"REV_AT_EPOCH":42436,"BSTAR":0.0017899775,"MEAN_MOTION_DOT":4.036e-5,"MEAN_MOTION_DDOT":0}]
